{"type": "FeatureCollection", "features": [{"type": "Feature", "properties": {"norad_id": 25590, "name": "COSMOS 2361", "group": "musson", "lat": 78.99846963689902, "lon": 128.79351204644794, "alt_km": 1002.8323904750105, "timestamp": "2025-12-06T20:37:56.341531+00:00", "meta": {"OBJECT_NAME": "COSMOS 2361", "OBJECT_ID": "1998-076A", "EPOCH": "2025-12-06T13:43:23.646144", "MEAN_MOTION": 13.73216489, "ECCENTRICITY": 0.00300945, "INCLINATION": 82.9339, "RA_OF_ASC_NODE": 348.6488, "ARG_OF_PERICENTER": 283.5188, "MEAN_ANOMALY": 192.5411, "EPHEMERIS_TYPE": 0, "CLASSIFICATION_TYPE": "U", "NORAD_CAT_ID": 25590, "ELEMENT_SET_NO": 999, "REV_AT_EPOCH": 35026, "BSTAR": 8.701482e-05, "MEAN_MOTION_DOT": 9.6e-07, "MEAN_MOTION_DDOT": 0}, "tle": {"line1": "1 25590U 98076A   25340.57180146  .00000096  00000+0  87015-4 0  9996", "line2": "2 25590  82.9339 348.6488 0030094 283.5188 192.5411 13.73216489350262"}}, "geometry": {"type": "Point", "coordinates": [128.79351204644794, 78.99846963689902]}}, {"type": "Feature", "properties": {"norad_id": 26818, "name": "COSMOS 2378", "group": "musson", "lat": 28.520825320541885, "lon": -179.7830528336955, "alt_km": 975.4226262308721, "timestamp": "2025-12-06T20:37:56.341552+00:00", "meta": {"OBJECT_NAME": "COSMOS 2378", "OBJECT_ID": "2001-023A", "EPOCH": "2025-12-06T15:14:03.854976", "MEAN_MOTION": 13.74141306, "ECCENTRICITY": 0.00320734, "INCLINATION": 82.9276, "RA_OF_ASC_NODE": 4.2519, "ARG_OF_PERICENTER": 222.2398, "MEAN_ANOMALY": 257.2518, "EPHEMERIS_TYPE": 0, "CLASSIFICATION_TYPE": "U", "NORAD_CAT_ID": 26818, "ELEMENT_SET_NO": 999, "REV_AT_EPOCH": 22839, "BSTAR": 8.3109267e-05, "MEAN_MOTION_DOT": 9.3e-07, "MEAN_MOTION_DDOT": 0}, "tle": {"line1": "1 26818U 01023A   25340.63476684  .00000093  00000+0  83109-4 0  9995", "line2": "2 26818  82.9276   4.2519 0032073 222.2398 257.2518 13.74141306228399"}}, "geometry": {"type": "Point", "coordinates": [-179.7830528336955, 28.520825320541885]}}, {"type": "Feature", "properties": {"norad_id": 27436, "name": "COSMOS 2389", "group": "musson", "lat": -23.446804094407685, "lon": -51.73852919867206, "alt_km": 992.6001068274827, "timestamp": "2025-12-06T20:37:56.341567+00:00", "meta": {"OBJECT_NAME": "COSMOS 2389", "OBJECT_ID": "2002-026A", "EPOCH": "2025-12-06T09:15:22.243968", "MEAN_MOTION": 13.75153681, "ECCENTRICITY": 0.00477458, "INCLINATION": 82.9496, "RA_OF_ASC_NODE": 311.689, "ARG_OF_PERICENTER": 78.0104, "MEAN_ANOMALY": 73.7342, "EPHEMERIS_TYPE": 0, "CLASSIFICATION_TYPE": "U", "NORAD_CAT_ID": 27436, "ELEMENT_SET_NO": 999, "REV_AT_EPOCH": 18061, "BSTAR": 8.7007497e-05, "MEAN_MOTION_DOT": 1e-06, "MEAN_MOTION_DDOT": 0}, "tle": {"line1": "1 27436U 02026A   25340.38567412  .00000100  00000+0  87007-4 0  9998", "line2": "2 27436  82.9496 311.6890 0047745  78.0104  73.7342 13.75153681180619"}}, "geometry": {"type": "Point", "coordinates": [-51.73852919867206, -23.446804094407685]}}, {"type": "Feature", "properties": {"norad_id": 27818, "name": "COSMOS 2398", "group": "musson", "lat": -12.045924830961242, "lon": -84.48209804985949, "alt_km": 1013.466810287111, "timestamp": "2025-12-06T20:37:56.341578+00:00", "meta": {"OBJECT_NAME": "COSMOS 2398", "OBJECT_ID": "2003-023A", "EPOCH": "2025-12-06T14:31:56.142624", "MEAN_MOTION": 13.72384745, "ECCENTRICITY": 0.00323483, "INCLINATION": 82.9479, "RA_OF_ASC_NODE": 277.2188, "ARG_OF_PERICENTER": 128.2558, "MEAN_ANOMALY": 44.9235, "EPHEMERIS_TYPE": 0, "CLASSIFICATION_TYPE": "U", "NORAD_CAT_ID": 27818, "ELEMENT_SET_NO": 999, "REV_AT_EPOCH": 12732, "BSTAR": 7.6676922e-05, "MEAN_MOTION_DOT": 8.6e-07, "MEAN_MOTION_DDOT": 0}, "tle": {"line1": "1 27818U 03023A   25340.60551091  .00000086  00000+0  76677-4 0  9995", "line2": "2 27818  82.9479 277.2188 0032348 128.2558  44.9235 13.72384745127329"}}, "geometry": {"type": "Point", "coordinates": [-84.48209804985949, -12.045924830961242]}}, {"type": "Feature", "properties": {"norad_id": 28380, "name": "COSMOS 2407", "group": "musson", "lat": 76.82198867583841, "lon": 5.3996360524317675, "alt_km": 944.0562483380854, "timestamp": "2025-12-06T20:37:56.341590+00:00", "meta": {"OBJECT_NAME": "COSMOS 2407", "OBJECT_ID": "2004-028A", "EPOCH": "2025-12-06T15:12:05.425632", "MEAN_MOTION": 13.76312627, "ECCENTRICITY": 0.00404804, "INCLINATION": 82.9614, "RA_OF_ASC_NODE": 217.4135, "ARG_OF_PERICENTER": 71.4014, "MEAN_ANOMALY": 348.9699, "EPHEMERIS_TYPE": 0, "CLASSIFICATION_TYPE": "U", "NORAD_CAT_ID": 28380, "ELEMENT_SET_NO": 999, "REV_AT_EPOCH": 7339, "BSTAR": 0.00010274243, "MEAN_MOTION_DOT": 1.16e-06, "MEAN_MOTION_DDOT": 0}, "tle": {"line1": "1 28380U 04028A   25340.63339613  .00000116  00000+0  10274-3 0  9997", "line2": "2 28380  82.9614 217.4135 0040480  71.4014 348.9699 13.76312627 73397"}}, "geometry": {"type": "Point", "coordinates": [5.3996360524317675, 76.82198867583841]}}, {"type": "Feature", "properties": {"norad_id": 28521, "name": "COSMOS 2414", "group": "musson", "lat": 60.09788920451629, "lon": -3.3205674678259403, "alt_km": 906.4848071217539, "timestamp": "2025-12-06T20:37:56.341601+00:00", "meta": {"OBJECT_NAME": "COSMOS 2414", "OBJECT_ID": "2005-002A", "EPOCH": "2025-12-06T14:52:09.987456", "MEAN_MOTION": 13.87901802, "ECCENTRICITY": 0.00405247, "INCLINATION": 82.9498, "RA_OF_ASC_NODE": 189.2877, "ARG_OF_PERICENTER": 156.887, "MEAN_ANOMALY": 203.4128, "EPHEMERIS_TYPE": 0, "CLASSIFICATION_TYPE": "U", "NORAD_CAT_ID": 28521, "ELEMENT_SET_NO": 999, "REV_AT_EPOCH": 5710, "BSTAR": 9.2152822e-05, "MEAN_MOTION_DOT": 1.26e-06, "MEAN_MOTION_DDOT": 0}, "tle": {"line1": "1 28521U 05002A   25340.61956004  .00000126  00000+0  92153-4 0  9992", "line2": "2 28521  82.9498 189.2877 0040524 156.8870 203.4128 13.87901802 57104"}}, "geometry": {"type": "Point", "coordinates": [-3.3205674678259403, 60.09788920451629]}}, {"type": "Feature", "properties": {"norad_id": 32052, "name": "COSMOS 2429", "group": "musson", "lat": 16.34934483182886, "lon": 165.57282531683288, "alt_km": 991.3513086992025, "timestamp": "2025-12-06T20:37:56.341612+00:00", "meta": {"OBJECT_NAME": "COSMOS 2429", "OBJECT_ID": "2007-038A", "EPOCH": "2025-12-06T07:37:13.123200", "MEAN_MOTION": 13.75148429, "ECCENTRICITY": 0.00395213, "INCLINATION": 82.9803, "RA_OF_ASC_NODE": 348.0437, "ARG_OF_PERICENTER": 55.3462, "MEAN_ANOMALY": 305.141, "EPHEMERIS_TYPE": 0, "CLASSIFICATION_TYPE": "U", "NORAD_CAT_ID": 32052, "ELEMENT_SET_NO": 999, "REV_AT_EPOCH": 91514, "BSTAR": 7.1111268e-05, "MEAN_MOTION_DOT": 8.4e-07, "MEAN_MOTION_DDOT": 0}, "tle": {"line1": "1 32052U 07038A   25340.31751300  .00000084  00000+0  71111-4 0  9990", "line2": "2 32052  82.9803 348.0437 0039521  55.3462 305.1410 13.75148429915146"}}, "geometry": {"type": "Point", "coordinates": [165.57282531683288, 16.34934483182886]}}, {"type": "Feature", "properties": {"norad_id": 35635, "name": "COSMOS 2454", "group": "musson", "lat": 52.47740271971181, "lon": -16.163056994755674, "alt_km": 912.0742893559418, "timestamp": "2025-12-06T20:37:56.341624+00:00", "meta": {"OBJECT_NAME": "COSMOS 2454", "OBJECT_ID": "2009-039A", "EPOCH": "2025-12-06T15:09:08.424864", "MEAN_MOTION": 13.89927606, "ECCENTRICITY": 0.00204991, "INCLINATION": 82.9557, "RA_OF_ASC_NODE": 173.2754, "ARG_OF_PERICENTER": 90.0895, "MEAN_ANOMALY": 334.7919, "EPHEMERIS_TYPE": 0, "CLASSIFICATION_TYPE": "U", "NORAD_CAT_ID": 35635, "ELEMENT_SET_NO": 999, "REV_AT_EPOCH": 83065, "BSTAR": 8.5915832e-05, "MEAN_MOTION_DOT": 1.22e-06, "MEAN_MOTION_DDOT": 0}, "tle": {"line1": "1 35635U 09039A   25340.63134751  .00000122  00000+0  85916-4 0  9994", "line2": "2 35635  82.9557 173.2754 0020499  90.0895 334.7919 13.89927606830653"}}, "geometry": {"type": "Point", "coordinates": [-16.163056994755674, 52.47740271971181]}}, {"type": "Feature", "properties": {"norad_id": 36519, "name": "COSMOS 2463", "group": "musson", "lat": -13.05123157878654, "lon": -147.32551810473254, "alt_km": 1007.6425507488548, "timestamp": "2025-12-06T20:37:56.341635+00:00", "meta": {"OBJECT_NAME": "COSMOS 2463", "OBJECT_ID": "2010-017A", "EPOCH": "2025-12-06T15:02:37.660992", "MEAN_MOTION": 13.7164832, "ECCENTRICITY": 0.00349663, "INCLINATION": 82.9618, "RA_OF_ASC_NODE": 31.2045, "ARG_OF_PERICENTER": 305.6125, "MEAN_ANOMALY": 178.62, "EPHEMERIS_TYPE": 0, "CLASSIFICATION_TYPE": "U", "NORAD_CAT_ID": 36519, "ELEMENT_SET_NO": 999, "REV_AT_EPOCH": 78153, "BSTAR": 8.7401317e-05, "MEAN_MOTION_DOT": 9.4e-07, "MEAN_MOTION_DDOT": 0}, "tle": {"line1": "1 36519U 10017A   25340.62682478  .00000094  00000+0  87401-4 0  9996", "line2": "2 36519  82.9618  31.2045 0034966 305.6125 178.6200 13.71648320781538"}}, "geometry": {"type": "Point", "coordinates": [-147.32551810473254, -13.05123157878654]}}]}